[
  {
    "naam": "Jan de Vries",
    "bsn": "123456789",
    "geboortedatum": "1980-05-15",
    "geboorteplaats": "Amsterdam",
    "adres": "Straatnaam 123",
    "postcode": "1234 AB",
    "woonplaats": "Amsterdam",
    "land": "Nederland"
  },
  {
    "naam": "Marieke Jansen",
    "bsn": "987654321",
    "geboortedatum": "1985-08-20",
    "geboorteplaats": "Rotterdam",
    "adres": "Andere Straat 456",
    "postcode": "5678 CD",
    "woonplaats": "Rotterdam",
    "land": "Nederland"
  },
  {
    "naam": "Pieter van Dijk",
    "bsn": "456789012",
    "geboortedatum": "1992-02-10",
    "geboorteplaats": "Den Haag",
    "adres": "Hoofdstraat 789",
    "postcode": "9012 EF",
    "woonplaats": "Den Haag",
    "land": "Nederland"
  },
  {
    "naam": "Eva de Boer",
    "bsn": "789012345",
    "geboortedatum": "1988-11-25",
    "geboorteplaats": "Utrecht",
    "adres": "Centrumlaan 101",
    "postcode": "3456 GH",
    "woonplaats": "Utrecht",
    "land": "Nederland"
  },
  {
    "naam": "Thomas Bakker",
    "bsn": "234567890",
    "geboortedatum": "1990-04-30",
    "geboorteplaats": "Groningen",
    "adres": "Buitenweg 202",
    "postcode": "6789 IJ",
    "woonplaats": "Groningen",
    "land": "Nederland"
  },
  {
    "naam": "Sofie Molenaar",
    "bsn": "567890123",
    "geboortedatum": "1982-07-12",
    "geboorteplaats": "Maastricht",
    "adres": "Parklaan 303",
    "postcode": "0123 KL",
    "woonplaats": "Maastricht",
    "land": "Nederland"
  },
  {
    "naam": "Lucas de Wit",
    "bsn": "345678901",
    "geboortedatum": "1986-09-18",
    "geboorteplaats": "Arnhem",
    "adres": "Bosweg 404",
    "postcode": "4567 MN",
    "woonplaats": "Arnhem",
    "land": "Nederland"
  },
  {
    "naam": "Lotte van der Linden",
    "bsn": "901234567",
    "geboortedatum": "1995-01-05",
    "geboorteplaats": "Den Bosch",
    "adres": "Zeedijk 505",
    "postcode": "8901 OP",
    "woonplaats": "Den Bosch",
    "land": "Nederland"
  },
  {
    "naam": "Michel Hendriks",
    "bsn": "678901234",
    "geboortedatum": "1984-03-22",
    "geboorteplaats": "Leeuwarden",
    "adres": "Duinenstraat 606",
    "postcode": "2345 QR",
    "woonplaats": "Leeuwarden",
    "land": "Nederland"
  },
  {
    "naam": "Sophie Kuijpers",
    "bsn": "123890456",
    "geboortedatum": "1998-06-08",
    "geboorteplaats": "Amersfoort",
    "adres": "Havenweg 707",
    "postcode": "6789 ST",
    "woonplaats": "Amersfoort",
    "land": "Nederland"
  },
  {
    "naam": "Mark van Dijk",
    "bsn": "456123789",
    "geboortedatum": "1987-12-03",
    "geboorteplaats": "Eindhoven",
    "adres": "Kanaalstraat 808",
    "postcode": "3456 UV",
    "woonplaats": "Eindhoven",
    "land": "Nederland"
  },
  {
    "naam": "Anouk Bos",
    "bsn": "789456012",
    "geboortedatum": "1983-04-17",
    "geboorteplaats": "Nijmegen",
    "adres": "Dorpstraat 909",
    "postcode": "9012 WX",
    "woonplaats": "Nijmegen",
    "land": "Nederland"
  },
  {
    "naam": "Jeroen Visser",
    "bsn": "234567890",
    "geboortedatum": "1991-09-22",
    "geboorteplaats": "Haarlem",
    "adres": "Hofweg 111",
    "postcode": "2345 YZ",
    "woonplaats": "Haarlem",
    "land": "Nederland"
  },
  {
    "naam": "Femke Smit",
    "bsn": "890123456",
    "geboortedatum": "1989-07-10",
    "geboorteplaats": "Breda",
    "adres": "Brinklaan 222",
    "postcode": "6789 CD",
    "woonplaats": "Breda",
    "land": "Nederland"
  },
  {
    "naam": "Martijn Hoekstra",
    "bsn": "567890123",
    "geboortedatum": "1993-02-05",
    "geboorteplaats": "Zwolle",
    "adres": "Rivierstraat 333",
    "postcode": "0123 AB",
    "woonplaats": "Zwolle",
    "land": "Nederland"
  },
  {
    "naam": "Lisanne de Groot",
    "bsn": "123456789",
    "geboortedatum": "1986-11-28",
    "geboorteplaats": "Almere",
    "adres": "Parkweg 444",
    "postcode": "5678 PQ",
    "woonplaats": "Almere",
    "land": "Nederland"
  },
  {
    "naam": "Rik van der Heijden",
    "bsn": "987654321",
    "geboortedatum": "1984-04-15",
    "geboorteplaats": "Middelburg",
    "adres": "Vesting 555",
    "postcode": "9012 RS",
    "woonplaats": "Middelburg",
    "land": "Nederland"
  },
  {
    "naam": "Sanne van der Wal",
    "bsn": "456789012",
    "geboortedatum": "1994-08-20",
    "geboorteplaats": "Assen",
    "adres": "Dennenlaan 666",
    "postcode": "3456 FG",
    "woonplaats": "Assen",
    "land": "Nederland"
  },
  {
    "naam": "Thijs Bakker",
    "bsn": "789012345",
    "geboortedatum": "1982-05-01",
    "geboorteplaats": "Enschede",
    "adres": "Eikstraat 777",
    "postcode": "8901 KL",
    "woonplaats": "Enschede",
    "land": "Nederland"
  },
  {
    "naam": "Lotte de Lange",
    "bsn": "234567890",
    "geboortedatum": "1987-10-12",
    "geboorteplaats": "Roermond",
    "adres": "Kerkplein 888",
    "postcode": "2345 MN",
    "woonplaats": "Roermond",
    "land": "Nederland"
  },
  {
    "naam": "Stefan Visser",
    "bsn": "567890123",
    "geboortedatum": "1996-03-25",
    "geboorteplaats": "Leiden",
    "adres": "Schoolstraat 999",
    "postcode": "0123 XY",
    "woonplaats": "Leiden",
    "land": "Nederland"
  },
  {
    "naam": "Emma Jansen",
    "bsn": "901234567",
    "geboortedatum": "1985-06-08",
    "geboorteplaats": "Tilburg",
    "adres": "Bocht 111",
    "postcode": "6789 UV",
    "woonplaats": "Tilburg",
    "land": "Nederland"
  },
  {
    "naam": "Lucas Peters",
    "bsn": "678901234",
    "geboortedatum": "1989-12-18",
    "geboorteplaats": "Sittard",
    "adres": "Steeg 222",
    "postcode": "9012 AB",
    "woonplaats": "Sittard",
    "land": "Nederland"
  },
  {
    "naam": "Fleur van Dijk",
    "bsn": "123890456",
    "geboortedatum": "1997-01-05",
    "geboorteplaats": "Heerlen",
    "adres": "Kade 333",
    "postcode": "6789 CD",
    "woonplaats": "Heerlen",
    "land": "Nederland"
  },
  {
    "naam": "Joris van der Linden",
    "bsn": "456123789",
    "geboortedatum": "1983-09-22",
    "geboorteplaats": "Amstelveen",
    "adres": "Kerkweg 444",
    "postcode": "3456 EF",
    "woonplaats": "Amstelveen",
    "land": "Nederland"
  },
  {
    "naam": "Lieke Jacobs",
    "bsn": "987654321",
    "geboortedatum": "1981-07-10",
    "geboorteplaats": "Hengelo",
    "adres": "Heuvel 555",
    "postcode": "9012 RS",
    "woonplaats": "Hengelo",
    "land": "Nederland"
  },
  {
    "naam": "Gijs de Boer",
    "bsn": "456789012",
    "geboortedatum": "1991-02-05",
    "geboorteplaats": "Zeist",
    "adres": "Hoflaan 666",
    "postcode": "3456 FG",
    "woonplaats": "Zeist",
    "land": "Nederland"
  },
  {
    "naam": "Anne van der Heijden",
    "bsn": "789012345",
    "geboortedatum": "1985-11-28",
    "geboorteplaats": "Deventer",
    "adres": "Kastanjelaan 777",
    "postcode": "8901 KL",
    "woonplaats": "Deventer",
    "land": "Nederland"
  },
  {
    "naam": "Rick de Groot",
    "bsn": "234567890",
    "geboortedatum": "1988-04-12",
    "geboorteplaats": "Doetinchem",
    "adres": "Esdoornstraat 888",
    "postcode": "2345 MN",
    "woonplaats": "Doetinchem",
    "land": "Nederland"
  },
  {
    "naam": "Esmee van der Wal",
    "bsn": "567890123",
    "geboortedatum": "1995-03-25",
    "geboorteplaats": "Venlo",
    "adres": "Veldweg 999",
    "postcode": "0123 XY",
    "woonplaats": "Venlo",
    "land": "Nederland"
  },
  {
    "naam": "Max Hoekstra",
    "bsn": "901234567",
    "geboortedatum": "1987-06-08",
    "geboorteplaats": "Hoorn",
    "adres": "Havenstraat 111",
    "postcode": "6789 UV",
    "woonplaats": "Hoorn",
    "land": "Nederland"
  },
  {
    "naam": "Luna de Lange",
    "bsn": "678901234",
    "geboortedatum": "1992-12-18",
    "geboorteplaats": "Drachten",
    "adres": "Dijkweg 222",
    "postcode": "9012 AB",
    "woonplaats": "Drachten",
    "land": "Nederland"
  },
  {
    "naam": "Daan Visser",
    "bsn": "123890456",
    "geboortedatum": "1984-01-05",
    "geboorteplaats": "Delft",
    "adres": "Dam 333",
    "postcode": "6789 CD",
    "woonplaats": "Delft",
    "land": "Nederland"
  },
  {
    "naam": "Lara Smit",
    "bsn": "456123789",
    "geboortedatum": "1989-09-22",
    "geboorteplaats": "Alkmaar",
    "adres": "Achterweg 444",
    "postcode": "3456 EF",
    "woonplaats": "Alkmaar",
    "land": "Nederland"
  },
  {
    "naam": "Luuk Kuijpers",
    "bsn": "987654321",
    "geboortedatum": "1981-07-10",
    "geboorteplaats": "Culemborg",
    "adres": "Kanaalweg 555",
    "postcode": "9012 RS",
    "woonplaats": "Culemborg",
    "land": "Nederland"
  },
  {
    "naam": "Feline Peters",
    "bsn": "456789012",
    "geboortedatum": "1993-02-05",
    "geboorteplaats": "Soest",
    "adres": "Stationsplein 666",
    "postcode": "3456 FG",
    "woonplaats": "Soest",
    "land": "Nederland"
  },
  {
    "naam": "Thijs Bakker",
    "bsn": "789012345",
    "geboortedatum": "1985-05-01",
    "geboorteplaats": "Veenendaal",
    "adres": "Valkstraat 777",
    "postcode": "8901 KL",
    "woonplaats": "Veenendaal",
    "land": "Nederland"
  },
  {
    "naam": "Noa de Lange",
    "bsn": "234567890",
    "geboortedatum": "1989-10-12",
    "geboorteplaats": "Emmen",
    "adres": "Eikenlaan 888",
    "postcode": "2345 MN",
    "woonplaats": "Emmen",
    "land": "Nederland"
  },
  {
    "naam": "Sem Visser",
    "bsn": "567890123",
    "geboortedatum": "1996-03-25",
    "geboorteplaats": "Weert",
    "adres": "Wilgenweg 999",
    "postcode": "0123 XY",
    "woonplaats": "Weert",
    "land": "Nederland"
  }
  ]